[{"OBJECT_NAME":"LEMUR-1","OBJECT_ID":"2014-033AL","EPOCH":"2026-03-05T15:54:04.701888","MEAN_MOTION":14.84775369,"ECCENTRICITY":0.004974,"INCLINATION":97.7708,"RA_OF_ASC_NODE":216.887,"ARG_OF_PERICENTER":58.8222,"MEAN_ANOMALY":301.7855,"EPHEMERIS_TYPE":0,"CLASSIFICATION_TYPE":"U","NORAD_CAT_ID":40044,"ELEMENT_SET_NO":999,"REV_AT_EPOCH":63010,"BSTAR":0.00039825,"MEAN_MOTION_DOT":3.399e-5,"MEAN_MOTION_DDOT":0},{"OBJECT_NAME":"LEMUR-2-GREENBERG","OBJECT_ID":"2017-042N","EPOCH":"2026-03-05T11:12:26.212320","MEAN_MOTION":15.27781866,"ECCENTRICITY":0.0009399,"INCLINATION":97.3766,"RA_OF_ASC_NODE":245.8468,"ARG_OF_PERICENTER":18.0268,"MEAN_ANOMALY":342.1303,"EPHEMERIS_TYPE":0,"CLASSIFICATION_TYPE":"U","NORAD_CAT_ID":42837,"ELEMENT_SET_NO":999,"REV_AT_EPOCH":47253,"BSTAR":0.0008309,"MEAN_MOTION_DOT":0.00022545,"MEAN_MOTION_DDOT":0},{"OBJECT_NAME":"LEMUR-2-ANDIS","OBJECT_ID":"2017-042P","EPOCH":"2026-03-05T10:34:00.922944","MEAN_MOTION":15.30321098,"ECCENTRICITY":0.000941,"INCLINATION":97.3642,"RA_OF_ASC_NODE":245.7075,"ARG_OF_PERICENTER":18.4169,"MEAN_ANOMALY":341.741,"EPHEMERIS_TYPE":0,"CLASSIFICATION_TYPE":"U","NORAD_CAT_ID":42838,"ELEMENT_SET_NO":999,"REV_AT_EPOCH":47256,"BSTAR":0.00095685,"MEAN_MOTION_DOT":0.00028096,"MEAN_MOTION_DDOT":0},{"OBJECT_NAME":"LEMUR-2-MONSON","OBJECT_ID":"2017-042Q","EPOCH":"2026-03-05T11:01:09.322752","MEAN_MOTION":15.24819987,"ECCENTRICITY":0.000681,"INCLINATION":97.4022,"RA_OF_ASC_NODE":245.9462,"ARG_OF_PERICENTER":7.2307,"MEAN_ANOMALY":352.9027,"EPHEMERIS_TYPE":0,"CLASSIFICATION_TYPE":"U","NORAD_CAT_ID":42839,"ELEMENT_SET_NO":999,"REV_AT_EPOCH":47234,"BSTAR":0.00083492,"MEAN_MOTION_DOT":0.00020702,"MEAN_MOTION_DDOT":0},{"OBJECT_NAME":"LEMUR-2-FURIAUS","OBJECT_ID":"2017-042R","EPOCH":"2026-03-05T13:38:33.540864","MEAN_MOTION":15.26004824,"ECCENTRICITY":0.0007588,"INCLINATION":97.374,"RA_OF_ASC_NODE":244.1642,"ARG_OF_PERICENTER":71.5362,"MEAN_ANOMALY":288.67,"EPHEMERIS_TYPE":0,"CLASSIFICATION_TYPE":"U","NORAD_CAT_ID":42840,"ELEMENT_SET_NO":999,"REV_AT_EPOCH":47238,"BSTAR":0.0011467,"MEAN_MOTION_DOT":0.00029527,"MEAN_MOTION_DDOT":0},{"OBJECT_NAME":"LEMUR-2-PETERG","OBJECT_ID":"2017-042S","EPOCH":"2026-03-05T11:47:50.863488","MEAN_MOTION":15.29401065,"ECCENTRICITY":0.0003899,"INCLINATION":97.3969,"RA_OF_ASC_NODE":249.689,"ARG_OF_PERICENTER":356.6134,"MEAN_ANOMALY":3.5079,"EPHEMERIS_TYPE":0,"CLASSIFICATION_TYPE":"U","NORAD_CAT_ID":42841,"ELEMENT_SET_NO":999,"REV_AT_EPOCH":47256,"BSTAR":0.00083323,"MEAN_MOTION_DOT":0.00023734,"MEAN_MOTION_DDOT":0},{"OBJECT_NAME":"LEMUR-2-DEMBITZ","OBJECT_ID":"2017-042T","EPOCH":"2026-03-05T17:44:40.133760","MEAN_MOTION":15.26762203,"ECCENTRICITY":0.0007139,"INCLINATION":97.3796,"RA_OF_ASC_NODE":247.2311,"ARG_OF_PERICENTER":29.8941,"MEAN_ANOMALY":330.2704,"EPHEMERIS_TYPE":0,"CLASSIFICATION_TYPE":"U","NORAD_CAT_ID":42842,"ELEMENT_SET_NO":999,"REV_AT_EPOCH":47254,"BSTAR":0.00085294,"MEAN_MOTION_DOT":0.00022428,"MEAN_MOTION_DDOT":0},{"OBJECT_NAME":"LEMUR-2-ZACHARY","OBJECT_ID":"2017-042W","EPOCH":"2026-03-05T11:58:08.467104","MEAN_MOTION":15.41637964,"ECCENTRICITY":0.0003681,"INCLINATION":97.3649,"RA_OF_ASC_NODE":254.5531,"ARG_OF_PERICENTER":32.8668,"MEAN_ANOMALY":327.2807,"EPHEMERIS_TYPE":0,"CLASSIFICATION_TYPE":"U","NORAD_CAT_ID":42845,"ELEMENT_SET_NO":999,"REV_AT_EPOCH":47318,"BSTAR":0.00127,"MEAN_MOTION_DOT":0.00053712,"MEAN_MOTION_DDOT":0},{"OBJECT_NAME":"LEMUR-2-JIN-LUEN","OBJECT_ID":"2018-014C","EPOCH":"2026-03-05T17:33:52.468128","MEAN_MOTION":15.77056809,"ECCENTRICITY":0.0002249,"INCLINATION":97.5453,"RA_OF_ASC_NODE":354.6445,"ARG_OF_PERICENTER":128.0074,"MEAN_ANOMALY":232.1395,"EPHEMERIS_TYPE":0,"CLASSIFICATION_TYPE":"U","NORAD_CAT_ID":43182,"ELEMENT_SET_NO":999,"REV_AT_EPOCH":44484,"BSTAR":0.00141,"MEAN_MOTION_DOT":0.00234399,"MEAN_MOTION_DDOT":0},{"OBJECT_NAME":"LEMUR-2-KADI","OBJECT_ID":"2018-014E","EPOCH":"2026-03-05T13:45:33.393888","MEAN_MOTION":15.63218835,"ECCENTRICITY":7.33e-5,"INCLINATION":97.4716,"RA_OF_ASC_NODE":349.0077,"ARG_OF_PERICENTER":75.6339,"MEAN_ANOMALY":284.5,"EPHEMERIS_TYPE":0,"CLASSIFICATION_TYPE":"U","NORAD_CAT_ID":43184,"ELEMENT_SET_NO":999,"REV_AT_EPOCH":44474,"BSTAR":0.0011406,"MEAN_MOTION_DOT":0.00105324,"MEAN_MOTION_DDOT":0},{"OBJECT_NAME":"LEMUR-2-AMANDA-SVANTE","OBJECT_ID":"2021-034B","EPOCH":"2026-03-05T17:12:31.106880","MEAN_MOTION":15.28171862,"ECCENTRICITY":0.0002296,"INCLINATION":97.5836,"RA_OF_ASC_NODE":140.7299,"ARG_OF_PERICENTER":216.7339,"MEAN_ANOMALY":143.3743,"EPHEMERIS_TYPE":0,"CLASSIFICATION_TYPE":"U","NORAD_CAT_ID":48269,"ELEMENT_SET_NO":999,"REV_AT_EPOCH":26522,"BSTAR":0.0010588,"MEAN_MOTION_DOT":0.00029082,"MEAN_MOTION_DDOT":0},{"OBJECT_NAME":"LEMUR-2-SPECIAL-K","OBJECT_ID":"2021-034F","EPOCH":"2026-03-05T16:49:17.315040","MEAN_MOTION":15.44684882,"ECCENTRICITY":0.0001432,"INCLINATION":97.5722,"RA_OF_ASC_NODE":145.842,"ARG_OF_PERICENTER":221.1939,"MEAN_ANOMALY":138.9201,"EPHEMERIS_TYPE":0,"CLASSIFICATION_TYPE":"U","NORAD_CAT_ID":48273,"ELEMENT_SET_NO":999,"REV_AT_EPOCH":26562,"BSTAR":0.0016929,"MEAN_MOTION_DOT":0.00079581,"MEAN_MOTION_DDOT":0},{"OBJECT_NAME":"LEMUR-2-EMBRIONOVIS","OBJECT_ID":"2023-084AQ","EPOCH":"2026-03-05T19:46:31.390752","MEAN_MOTION":15.34565482,"ECCENTRICITY":0.0008516,"INCLINATION":97.6125,"RA_OF_ASC_NODE":205.3807,"ARG_OF_PERICENTER":327.8542,"MEAN_ANOMALY":32.218,"EPHEMERIS_TYPE":0,"CLASSIFICATION_TYPE":"U","NORAD_CAT_ID":56970,"ELEMENT_SET_NO":999,"REV_AT_EPOCH":15181,"BSTAR":0.00032051,"MEAN_MOTION_DOT":0.00010664,"MEAN_MOTION_DDOT":0},{"OBJECT_NAME":"LEMUR-2-MANO","OBJECT_ID":"2023-100E","EPOCH":"2026-03-05T14:18:14.321376","MEAN_MOTION":15.59500914,"ECCENTRICITY":0.0001864,"INCLINATION":99.4549,"RA_OF_ASC_NODE":85.7743,"ARG_OF_PERICENTER":60.4341,"MEAN_ANOMALY":299.7095,"EPHEMERIS_TYPE":0,"CLASSIFICATION_TYPE":"U","NORAD_CAT_ID":57390,"ELEMENT_SET_NO":999,"REV_AT_EPOCH":14584,"BSTAR":0.0017909,"MEAN_MOTION_DOT":0.00144216,"MEAN_MOTION_DDOT":0},{"OBJECT_NAME":"LEMUR-2-DEVERILL-M-T","OBJECT_ID":"2023-100F","EPOCH":"2026-03-05T14:35:13.399872","MEAN_MOTION":15.34465329,"ECCENTRICITY":0.0008539,"INCLINATION":99.4575,"RA_OF_ASC_NODE":73.9015,"ARG_OF_PERICENTER":40.3746,"MEAN_ANOMALY":319.8123,"EPHEMERIS_TYPE":0,"CLASSIFICATION_TYPE":"U","NORAD_CAT_ID":57391,"ELEMENT_SET_NO":999,"REV_AT_EPOCH":14533,"BSTAR":0.00090314,"MEAN_MOTION_DOT":0.00030165,"MEAN_MOTION_DDOT":0},{"OBJECT_NAME":"LEMUR-2-BASS","OBJECT_ID":"2023-174D","EPOCH":"2026-03-05T17:31:55.902432","MEAN_MOTION":15.39589202,"ECCENTRICITY":0.0008059,"INCLINATION":97.3889,"RA_OF_ASC_NODE":148.2574,"ARG_OF_PERICENTER":175.9597,"MEAN_ANOMALY":184.1716,"EPHEMERIS_TYPE":0,"CLASSIFICATION_TYPE":"U","NORAD_CAT_ID":58259,"ELEMENT_SET_NO":999,"REV_AT_EPOCH":12942,"BSTAR":0.00052938,"MEAN_MOTION_DOT":0.00020807,"MEAN_MOTION_DDOT":0}]
