LEMUR-1                 
1 40044U 14033AL  26064.66255442  .00003399  00000+0  39825-3 0  9998
2 40044  97.7708 216.8870 0049740  58.8222 301.7855 14.84775369630108
LEMUR-2-GREENBERG       
1 42837U 17042N   26064.46697005  .00022545  00000+0  83090-3 0  9993
2 42837  97.3766 245.8468 0009399  18.0268 342.1303 15.27781866472534
LEMUR-2-ANDIS           
1 42838U 17042P   26064.44028846  .00028096  00000+0  95685-3 0  9993
2 42838  97.3642 245.7075 0009410  18.4169 341.7410 15.30321098472567
LEMUR-2-MONSON          
1 42839U 17042Q   26064.45913568  .00020702  00000+0  83492-3 0  9998
2 42839  97.4022 245.9462 0006810   7.2307 352.9027 15.24819987472340
LEMUR-2-FURIAUS         
1 42840U 17042R   26064.56844376  .00029527  00000+0  11467-2 0  9998
2 42840  97.3740 244.1642 0007588  71.5362 288.6700 15.26004824472382
LEMUR-2-PETERG          
1 42841U 17042S   26064.49156092  .00023734  00000+0  83323-3 0  9997
2 42841  97.3969 249.6890 0003899 356.6134   3.5079 15.29401065472560
LEMUR-2-DEMBITZ         
1 42842U 17042T   26064.73935340  .00022428  00000+0  85294-3 0  9994
2 42842  97.3796 247.2311 0007139  29.8941 330.2704 15.26762203472541
LEMUR-2-ZACHARY         
1 42845U 17042W   26064.49870911  .00053712  00000+0  12700-2 0  9993
2 42845  97.3649 254.5531 0003681  32.8668 327.2807 15.41637964473187
LEMUR-2-JIN-LUEN        
1 43182U 18014C   26064.73185727  .00234399  00000+0  14100-2 0  9997
2 43182  97.5453 354.6445 0002249 128.0074 232.1395 15.77056809444840
LEMUR-2-KADI            
1 43184U 18014E   26064.57330317  .00105324  00000+0  11406-2 0  9999
2 43184  97.4716 349.0077 0000733  75.6339 284.5000 15.63218835444746
LEMUR-2-AMANDA-SVANTE   
1 48269U 21034B   26064.71702670  .00029082  00000+0  10588-2 0  9991
2 48269  97.5836 140.7299 0002296 216.7339 143.3743 15.28171862265224
LEMUR-2-SPECIAL-K       
1 48273U 21034F   26064.70089485  .00079581  00000+0  16929-2 0  9991
2 48273  97.5722 145.8420 0001432 221.1939 138.9201 15.44684882265624
LEMUR-2-EMBRIONOVIS     
1 56970U 23084AQ  26064.82397443  .00010664  00000+0  32051-3 0  9992
2 56970  97.6125 205.3807 0008516 327.8542  32.2180 15.34565482151810
LEMUR-2-MANO            
1 57390U 23100E   26064.59599909  .00144216  00000+0  17909-2 0  9998
2 57390  99.4549  85.7743 0001864  60.4341 299.7095 15.59500914145849
LEMUR-2-DEVERILL-M-T    
1 57391U 23100F   26064.60779398  .00030165  00000+0  90314-3 0  9992
2 57391  99.4575  73.9015 0008539  40.3746 319.8123 15.34465329145335
LEMUR-2-BASS            
1 58259U 23174D   26064.73050813  .00020807  00000+0  52938-3 0  9997
2 58259  97.3889 148.2574 0008059 175.9597 184.1716 15.39589202129421
